{"type":"FeatureCollection","features":[{"type":"Feature","properties":{"GEO_ID":"0500000US48367","STATE":"48","COUNTY":"367","NAME":"Parker","LSAD":"County","CENSUSAREA":903.478,"name":"Parker"},"geometry":{"type":"Polygon","coordinates":[[[-97.544181,32.994177],[-97.550368,32.580323],[-97.550582,32.555391],[-97.617066,32.555484],[-98.066836,32.558822],[-98.056094,33.003332],[-97.921642,33.001284],[-97.545383,32.994662],[-97.544181,32.994177]]]},"id":"48367"},{"type":"Feature","properties":{"GEO_ID":"0500000US48397","STATE":"48","COUNTY":"397","NAME":"Rockwall","LSAD":"County","CENSUSAREA":127.036,"name":"Rockwall"},"geometry":{"type":"Polygon","coordinates":[[[-96.51897,32.813616],[-96.518586,32.873389],[-96.518314,32.877153],[-96.518273,32.891534],[-96.516866,32.982308],[-96.297227,32.981752],[-96.297322,32.841723],[-96.297376,32.814185],[-96.51897,32.813616]]]},"id":"48397"},{"type":"Feature","properties":{"GEO_ID":"0500000US48085","STATE":"48","COUNTY":"085","NAME":"Collin","LSAD":"County","CENSUSAREA":841.225,"name":"Collin"},"geometry":{"type":"Polygon","coordinates":[[[-96.682467,32.985325],[-96.687954,32.985259],[-96.838963,32.987521],[-96.839552,32.987508],[-96.843979,32.987554],[-96.841854,33.086264],[-96.840426,33.152585],[-96.834004,33.405504],[-96.386474,33.398075],[-96.384602,33.397826],[-96.384495,33.341119],[-96.295413,33.351936],[-96.297227,32.981752],[-96.516866,32.982308],[-96.613377,32.984021],[-96.660185,32.985127],[-96.682467,32.985325]]]},"id":"48085"},{"type":"Feature","properties":{"GEO_ID":"0500000US48439","STATE":"48","COUNTY":"439","NAME":"Tarrant","LSAD":"County","CENSUSAREA":863.608,"name":"Tarrant"},"geometry":{"type":"Polygon","coordinates":[[[-97.550582,32.555391],[-97.550368,32.580323],[-97.544181,32.994177],[-97.414843,32.992029],[-97.39848,32.990839],[-97.397205,32.990747],[-97.37994,32.990144],[-97.29423,32.99026],[-97.167261,32.989802],[-97.032287,32.989324],[-97.032687,32.920614],[-97.038385,32.548662],[-97.05262,32.548907],[-97.086834,32.549428],[-97.550582,32.555391]]]},"id":"48439"},{"type":"Feature","properties":{"GEO_ID":"0500000US48113","STATE":"48","COUNTY":"113","NAME":"Dallas","LSAD":"County","CENSUSAREA":871.279,"name":"Dallas"},"geometry":{"type":"Polygon","coordinates":[[[-96.838963,32.987521],[-96.687954,32.985259],[-96.682467,32.985325],[-96.660185,32.985127],[-96.613377,32.984021],[-96.516866,32.982308],[-96.518273,32.891534],[-96.518314,32.877153],[-96.518586,32.873389],[-96.51897,32.813616],[-96.523118,32.545214],[-96.529987,32.545282],[-96.908135,32.547838],[-97.038385,32.548662],[-97.032687,32.920614],[-97.032287,32.989324],[-97.016602,32.98932],[-97.016332,32.989324],[-96.843979,32.987554],[-96.839552,32.987508],[-96.838963,32.987521]]]},"id":"48113"},{"type":"Feature","properties":{"GEO_ID":"0500000US48121","STATE":"48","COUNTY":"121","NAME":"Denton","LSAD":"County","CENSUSAREA":878.432,"name":"Denton"},"geometry":{"type":"Polygon","coordinates":[[[-96.834004,33.405504],[-96.840426,33.152585],[-96.841854,33.086264],[-96.843979,32.987554],[-97.016332,32.989324],[-97.016602,32.98932],[-97.032287,32.989324],[-97.167261,32.989802],[-97.29423,32.99026],[-97.37994,32.990144],[-97.397205,32.990747],[-97.39848,32.990839],[-97.383095,33.43045],[-97.051253,33.41995],[-96.94386,33.41641],[-96.834004,33.405504]]]},"id":"48121"},{"type":"Feature","properties":{"GEO_ID":"0500000US48257","STATE":"48","COUNTY":"257","NAME":"Kaufman","LSAD":"County","CENSUSAREA":780.699,"name":"Kaufman"},"geometry":{"type":"Polygon","coordinates":[[[-96.529987,32.545282],[-96.523118,32.545214],[-96.51897,32.813616],[-96.297376,32.814185],[-96.297322,32.841723],[-96.076801,32.838489],[-96.076685,32.836799],[-96.075899,32.357505],[-96.452138,32.358631],[-96.529987,32.545282]]]},"id":"48257"},{"type":"Feature","properties":{"GEO_ID":"0500000US48181","STATE":"48","COUNTY":"181","NAME":"Grayson","LSAD":"County","name":"Grayson"},"geometry":{"type":"Polygon","coordinates":[[[-96.9451,33.852778],[-96.944611,33.949217],[-96.920733,33.959523],[-96.900996,33.938784],[-96.895728,33.896414],[-96.88301,33.868019],[-96.85609,33.84749],[-96.842442,33.851794],[-96.839775,33.868398],[-96.828163,33.874603],[-96.783485,33.863534],[-96.766234,33.825459],[-96.708134,33.83306],[-96.686833,33.857566],[-96.675306,33.909114],[-96.659896,33.916666],[-96.628294,33.894477],[-96.585452,33.891281],[-96.629022,33.852408],[-96.623147,33.841496],[-96.572937,33.819098],[-96.531966,33.823989],[-96.517848,33.806858],[-96.516581,33.788279],[-96.500984,33.772801],[-96.448045,33.781031],[-96.421753,33.775219],[-96.40822,33.750542],[-96.379452,33.725764],[-96.384602,33.397826],[-96.841171,33.405589],[-96.841098,33.413377],[-96.94386,33.41641],[-96.9451,33.852778]]]},"id":"48181"},{"type":"Feature","properties":{"GEO_ID":"0500000US48251","STATE":"48","COUNTY":"251","NAME":"Johnson","LSAD":"County","name":"Johnson"},"geometry":{"type":"Polygon","coordinates":[[[-97.365493,32.206321],[-97.475985,32.181679],[-97.471811,32.17552],[-97.511787,32.161935],[-97.508005,32.139355],[-97.514333,32.133802],[-97.568716,32.150494],[-97.56468,32.162354],[-97.573395,32.180315],[-97.60207,32.176129],[-97.589649,32.190883],[-97.597679,32.203702],[-97.615087,32.203491],[-97.617005,32.555484],[-97.087055,32.549296],[-97.08705,32.265255],[-97.365493,32.206321]]]},"id":"48251"},{"type":"Feature","properties":{"GEO_ID":"0500000US48497","STATE":"48","COUNTY":"497","NAME":"Wise","LSAD":"County","name":"Wise"},"geometry":{"type":"Polygon","coordinates":[[[-97.582231,33.433993],[-97.383015,33.43289],[-97.39848,32.990839],[-97.921642,33.001284],[-97.918189,33.433873],[-97.582231,33.433993]]]},"id":"48497"},{"type":"Feature","properties":{"GEO_ID":"0500000US48139","STATE":"48","COUNTY":"139","NAME":"Ellis","LSAD":"County","name":"Ellis"},"geometry":{"type":"Polygon","coordinates":[[[-96.500377,32.46947],[-96.492683,32.465651],[-96.498168,32.453408],[-96.484335,32.451482],[-96.477445,32.434406],[-96.434354,32.411085],[-96.437355,32.378551],[-96.453769,32.367911],[-96.45182,32.345002],[-96.436293,32.345413],[-96.430226,32.332211],[-96.38291,32.328929],[-96.940656,32.052087],[-97.087043,32.266824],[-97.087055,32.549296],[-96.529678,32.54528],[-96.51972,32.531766],[-96.512192,32.53618],[-96.50299,32.525991],[-96.507598,32.517478],[-96.501854,32.511895],[-96.513286,32.512143],[-96.500482,32.495507],[-96.506701,32.497557],[-96.501844,32.488207],[-96.51036,32.482467],[-96.500377,32.46947]]]},"id":"48139"},{"type":"Feature","properties":{"GEO_ID":"0500000US48097","STATE":"48","COUNTY":"097","NAME":"Cooke","LSAD":"County","name":"Cooke"},"geometry":{"type":"Polygon","coordinates":[[[-96.943346,33.606011],[-96.94386,33.41641],[-97.487065,33.433681],[-97.484163,33.91551],[-97.46142,33.90523],[-97.450948,33.891401],[-97.463202,33.84309],[-97.459068,33.834581],[-97.414155,33.817977],[-97.365497,33.823744],[-97.347213,33.845113],[-97.332457,33.884253],[-97.32334,33.87917],[-97.332804,33.855262],[-97.314257,33.865089],[-97.309172,33.888698],[-97.270916,33.858004],[-97.254235,33.865323],[-97.242172,33.906387],[-97.206141,33.91428],[-97.180845,33.895204],[-97.166629,33.847311],[-97.171627,33.835335],[-97.195832,33.830805],[-97.204995,33.81887],[-97.205431,33.801488],[-97.187724,33.769831],[-97.192565,33.75968],[-97.157373,33.725535],[-97.12125,33.717155],[-97.099234,33.726188],[-97.086451,33.743343],[-97.092936,33.803807],[-97.048146,33.817456],[-97.051949,33.832993],[-97.087204,33.841368],[-97.087964,33.852591],[-97.063786,33.859965],[-97.041042,33.837619],[-97.021438,33.846379],[-96.983835,33.890949],[-96.994288,33.949206],[-96.979415,33.956178],[-96.973807,33.935697],[-96.944611,33.949217],[-96.943346,33.606011]]]},"id":"48097"},{"type":"Feature","properties":{"GEO_ID":"0500000US48231","STATE":"48","COUNTY":"231","NAME":"Hunt","LSAD":"County","name":"Hunt"},"geometry":{"type":"Polygon","coordinates":[[[-95.861778,33.21933],[-95.862521,32.979571],[-95.9453,32.979877],[-95.972827,32.898176],[-95.987358,32.876131],[-95.956424,32.844941],[-95.934433,32.837217],[-96.297322,32.841723],[-96.295413,33.351936],[-95.858723,33.40953],[-95.861778,33.21933]]]},"id":"48231"},{"type":"Feature","properties":{"GEO_ID":"0500000US48221","STATE":"48","COUNTY":"221","NAME":"Hood","LSAD":"County","name":"Hood"},"geometry":{"type":"Polygon","coordinates":[[[-97.743724,32.316936],[-97.78276,32.316493],[-97.945625,32.233468],[-98.068545,32.511626],[-98.066836,32.558822],[-97.617005,32.555484],[-97.615222,32.318674],[-97.743724,32.316936]]]},"id":"48221"},{"type":"Feature","properties":{"GEO_ID":"0500000US48223","STATE":"48","COUNTY":"223","NAME":"Hopkins","LSAD":"County","name":"Hopkins"},"geometry":{"type":"Polygon","coordinates":[[[-95.509755,32.961446],[-95.665389,32.960434],[-95.667728,32.979554],[-95.862521,32.979571],[-95.861778,33.21933],[-95.844222,33.233852],[-95.786682,33.253997],[-95.774313,33.276877],[-95.756465,33.288216],[-95.758137,33.296866],[-95.698067,33.308391],[-95.683073,33.299827],[-95.657142,33.313195],[-95.650082,33.310035],[-95.612886,33.348295],[-95.586852,33.358711],[-95.557108,33.350921],[-95.539511,33.360546],[-95.514307,33.34624],[-95.465034,33.356802],[-95.456211,33.368447],[-95.441294,33.362707],[-95.418329,33.371032],[-95.369667,33.369999],[-95.344945,33.360295],[-95.314165,33.367232],[-95.308593,33.37719],[-95.308957,32.962572],[-95.509755,32.961446]]]},"id":"48223"},{"type":"Feature","properties":{"GEO_ID":"0500000US48143","STATE":"48","COUNTY":"143","NAME":"Erath","LSAD":"County","name":"Erath"},"geometry":{"type":"Polygon","coordinates":[[[-98.475566,32.43314],[-98.475177,32.513039],[-98.068545,32.511626],[-97.940474,32.221738],[-97.864864,32.087328],[-98.208386,31.917511],[-98.251211,31.980127],[-98.327499,31.941261],[-98.551158,32.261436],[-98.474685,32.299084],[-98.475566,32.43314]]]},"id":"48143"},{"type":"Feature","properties":{"GEO_ID":"0500000US48237","STATE":"48","COUNTY":"237","NAME":"Jack","LSAD":"County","name":"Jack"},"geometry":{"type":"Polygon","coordinates":[[[-98.421419,33.466797],[-97.978919,33.467129],[-97.978967,33.433748],[-97.918189,33.433873],[-97.921642,33.001284],[-98.426553,33.007913],[-98.421419,33.466797]]]},"id":"48237"},{"type":"Feature","properties":{"GEO_ID":"0500000US48159","STATE":"48","COUNTY":"159","NAME":"Franklin","LSAD":"County","name":"Franklin"},"geometry":{"type":"Polygon","coordinates":[[[-95.308593,33.37719],[-95.299116,33.382738],[-95.290144,33.375591],[-95.271049,33.376734],[-95.260962,33.366934],[-95.241513,33.367776],[-95.222683,33.378335],[-95.201067,33.38095],[-95.191683,33.373769],[-95.166183,33.385484],[-95.156004,33.380077],[-95.125451,33.389454],[-95.12613,33.034581],[-95.15365,33.012448],[-95.172947,32.961829],[-95.308957,32.962572],[-95.308593,33.37719]]]},"id":"48159"},{"type":"Feature","properties":{"GEO_ID":"0500000US48213","STATE":"48","COUNTY":"213","NAME":"Henderson","LSAD":"County","name":"Henderson"},"geometry":{"type":"Polygon","coordinates":[[[-95.677533,32.051631],[-96.052786,32.005895],[-96.050758,32.01678],[-96.066462,32.037757],[-96.065689,32.08553],[-96.106785,32.075394],[-96.117726,32.094632],[-96.104258,32.152431],[-96.11366,32.160901],[-96.138407,32.151417],[-96.159473,32.154893],[-96.17584,32.168241],[-96.176226,32.181752],[-96.157907,32.191334],[-96.160687,32.203988],[-96.146523,32.211715],[-96.155854,32.21501],[-96.190737,32.202625],[-96.196122,32.219782],[-96.200742,32.214269],[-96.209099,32.218653],[-96.217318,32.233511],[-96.236133,32.242155],[-96.235083,32.250896],[-96.25655,32.245061],[-96.267667,32.259202],[-96.2728,32.252487],[-96.277734,32.260646],[-96.28507,32.254592],[-96.29017,32.268921],[-96.283839,32.278862],[-96.293728,32.290033],[-96.288882,32.293212],[-96.300384,32.294215],[-96.29868,32.301156],[-96.339016,32.305973],[-96.390805,32.33386],[-96.405644,32.327687],[-96.417533,32.335536],[-96.430226,32.332211],[-96.436293,32.345413],[-96.45182,32.345002],[-96.453615,32.35802],[-95.448852,32.355014],[-95.458738,32.328429],[-95.446969,32.295807],[-95.469949,32.262124],[-95.467584,32.24663],[-95.488733,32.232303],[-95.478936,32.212223],[-95.462456,32.201543],[-95.46827,32.190481],[-95.461556,32.182898],[-95.47097,32.178655],[-95.478585,32.147224],[-95.459908,32.135559],[-95.457335,32.112589],[-95.428512,32.084475],[-95.677533,32.051631]]]},"id":"48213"},{"type":"Feature","properties":{"GEO_ID":"0500000US48467","STATE":"48","COUNTY":"467","NAME":"Van Zandt","LSAD":"County","name":"Van Zandt"},"geometry":{"type":"Polygon","coordinates":[[[-95.763867,32.757904],[-95.702341,32.742431],[-95.662443,32.711674],[-95.637085,32.724666],[-95.626279,32.708703],[-95.605114,32.704924],[-95.604027,32.696294],[-95.593466,32.693638],[-95.5943,32.479858],[-95.552778,32.453601],[-95.524791,32.421168],[-95.506931,32.414935],[-95.493687,32.389463],[-95.4704,32.368798],[-95.454508,32.366917],[-95.449165,32.355233],[-96.075899,32.357505],[-96.076801,32.838489],[-95.933814,32.837088],[-95.922362,32.815557],[-95.85075,32.770758],[-95.814807,32.770957],[-95.815834,32.76549],[-95.795432,32.775813],[-95.770147,32.772741],[-95.76105,32.769722],[-95.763867,32.757904]]]},"id":"48467"},{"type":"Feature","properties":{"GEO_ID":"0500000US48349","STATE":"48","COUNTY":"349","NAME":"Navarro","LSAD":"County","name":"Navarro"},"geometry":{"type":"Polygon","coordinates":[[[-96.153581,31.96475],[-96.496713,31.796191],[-96.719114,31.814887],[-96.896209,32.073977],[-96.38291,32.328929],[-96.339016,32.305973],[-96.29868,32.301156],[-96.300384,32.294215],[-96.288882,32.293212],[-96.293728,32.290033],[-96.283839,32.278862],[-96.29017,32.268921],[-96.28507,32.254592],[-96.277734,32.260646],[-96.2728,32.252487],[-96.267667,32.259202],[-96.25655,32.245061],[-96.235083,32.250896],[-96.236133,32.242155],[-96.217318,32.233511],[-96.209099,32.218653],[-96.200742,32.214269],[-96.196122,32.219782],[-96.190737,32.202625],[-96.146799,32.211937],[-96.160687,32.203988],[-96.157907,32.191334],[-96.176477,32.181379],[-96.175714,32.168054],[-96.159473,32.154893],[-96.138407,32.151417],[-96.11366,32.160901],[-96.102974,32.150554],[-96.114699,32.126487],[-96.117726,32.094632],[-96.106785,32.075394],[-96.065689,32.08553],[-96.066462,32.037757],[-96.050844,32.016393],[-96.153581,31.96475]]]},"id":"48349"},{"type":"Feature","properties":{"GEO_ID":"0500000US48337","STATE":"48","COUNTY":"337","NAME":"Montague","LSAD":"County","name":"Montague"},"geometry":{"type":"Polygon","coordinates":[[[-97.572349,33.899263],[-97.551541,33.897947],[-97.500929,33.919538],[-97.484163,33.91551],[-97.487065,33.433681],[-97.978967,33.433748],[-97.97786,33.889825],[-97.958409,33.879072],[-97.934169,33.878109],[-97.875311,33.849721],[-97.83432,33.857634],[-97.817643,33.880992],[-97.805423,33.877167],[-97.79891,33.898537],[-97.780839,33.894447],[-97.783522,33.918302],[-97.76377,33.914241],[-97.762768,33.934396],[-97.732261,33.936519],[-97.712194,33.951641],[-97.69311,33.983699],[-97.671277,33.991553],[-97.633778,33.981257],[-97.589597,33.953554],[-97.596592,33.914708],[-97.587441,33.902479],[-97.572349,33.899263]]]},"id":"48337"},{"type":"Feature","properties":{"GEO_ID":"0500000US48363","STATE":"48","COUNTY":"363","NAME":"Palo Pinto","LSAD":"County","name":"Palo Pinto"},"geometry":{"type":"Polygon","coordinates":[[[-98.575702,32.885613],[-98.575616,32.954349],[-98.427211,32.9523],[-98.426553,33.007913],[-98.056094,33.003332],[-98.068545,32.511626],[-98.576256,32.515163],[-98.575702,32.885613]]]},"id":"48363"},{"type":"Feature","properties":{"GEO_ID":"0500000US48217","STATE":"48","COUNTY":"217","NAME":"Hill","LSAD":"County","name":"Hill"},"geometry":{"type":"Polygon","coordinates":[[[-97.187335,31.790169],[-97.277265,31.745492],[-97.310335,31.761552],[-97.326497,31.789741],[-97.281,31.824335],[-97.27831,31.839468],[-97.303743,31.84839],[-97.329135,31.841875],[-97.382848,31.870788],[-97.38182,31.884255],[-97.359367,31.889632],[-97.398334,31.909806],[-97.409417,31.908254],[-97.439471,31.929775],[-97.37731,31.979515],[-97.405639,31.987566],[-97.421818,32.004826],[-97.426387,32.028557],[-97.44769,32.012499],[-97.474942,32.010081],[-97.485968,32.017611],[-97.492092,32.059723],[-97.469933,32.091648],[-97.496776,32.136119],[-97.469212,32.148305],[-97.456645,32.16378],[-97.461285,32.171937],[-97.476086,32.17346],[-97.475985,32.181679],[-97.087043,32.266824],[-96.940656,32.052087],[-96.896209,32.073977],[-96.719114,31.814887],[-96.932215,31.708887],[-97.037266,31.863079],[-97.187335,31.790169]]]},"id":"48217"},{"type":"Feature","properties":{"GEO_ID":"0500000US48425","STATE":"48","COUNTY":"425","NAME":"Somervell","LSAD":"County","name":"Somervell"},"geometry":{"type":"Polygon","coordinates":[[[-97.945625,32.233468],[-97.78276,32.316493],[-97.61572,32.318617],[-97.615087,32.203491],[-97.630919,32.207388],[-97.864864,32.087328],[-97.945625,32.233468]]]},"id":"48425"},{"type":"Feature","properties":{"GEO_ID":"0500000US48035","STATE":"48","COUNTY":"035","NAME":"Bosque","LSAD":"County","name":"Bosque"},"geometry":{"type":"Polygon","coordinates":[[[-97.336415,31.717008],[-97.60523,31.587762],[-97.689834,31.711019],[-97.766431,31.672461],[-98.005462,32.017897],[-97.630885,32.207403],[-97.59457,32.20196],[-97.58989,32.18848],[-97.60168,32.17567],[-97.573395,32.180315],[-97.56468,32.162354],[-97.569677,32.151285],[-97.521813,32.13476],[-97.508158,32.138438],[-97.511143,32.162424],[-97.461285,32.171937],[-97.456448,32.164382],[-97.468689,32.148781],[-97.497086,32.134345],[-97.469933,32.091648],[-97.492092,32.059723],[-97.485968,32.017611],[-97.474942,32.010081],[-97.44769,32.012499],[-97.426387,32.028557],[-97.421818,32.004826],[-97.405639,31.987566],[-97.37731,31.979515],[-97.439471,31.929775],[-97.409417,31.908254],[-97.398334,31.909806],[-97.359367,31.889632],[-97.38182,31.884255],[-97.382848,31.870788],[-97.329791,31.842088],[-97.302673,31.84828],[-97.277184,31.836326],[-97.282026,31.823331],[-97.32653,31.78836],[-97.310335,31.761552],[-97.277265,31.745492],[-97.336415,31.717008]]]},"id":"48035"},{"type":"Feature","properties":{"GEO_ID":"0500000US48379","STATE":"48","COUNTY":"379","NAME":"Rains","LSAD":"County","name":"Rains"},"geometry":{"type":"Polygon","coordinates":[[[-95.987259,32.876415],[-95.972827,32.898176],[-95.9453,32.979877],[-95.667728,32.979554],[-95.635017,32.72038],[-95.668042,32.713317],[-95.702341,32.742431],[-95.733518,32.746179],[-95.739182,32.756833],[-95.762335,32.755446],[-95.761108,32.769858],[-95.770043,32.772719],[-95.795432,32.775813],[-95.815834,32.76549],[-95.814807,32.770957],[-95.85075,32.770758],[-95.922362,32.815557],[-95.934939,32.840339],[-95.956424,32.844941],[-95.987259,32.876415]]]},"id":"48379"},{"type":"Feature","properties":{"GEO_ID":"0500000US48001","STATE":"48","COUNTY":"001","NAME":"Anderson","LSAD":"County","name":"Anderson"},"geometry":{"type":"Polygon","coordinates":[[[-96.06486,31.980947],[-96.049045,31.997245],[-96.052786,32.005895],[-95.424107,32.083892],[-95.438496,32.066019],[-95.422193,32.042301],[-95.438673,32.033013],[-95.424106,32.018893],[-95.429784,32.006247],[-95.446146,31.999423],[-95.452902,31.976789],[-95.443942,31.963122],[-95.453521,31.959953],[-95.420231,31.926196],[-95.431873,31.913751],[-95.429211,31.901202],[-95.437522,31.901686],[-95.430978,31.880003],[-95.438882,31.876219],[-95.434837,31.866637],[-95.445221,31.857981],[-95.446884,31.843194],[-95.410166,31.834147],[-95.412515,31.826258],[-95.400786,31.818609],[-95.404252,31.803324],[-95.394036,31.784608],[-95.402125,31.76159],[-95.358239,31.749253],[-95.363067,31.736981],[-95.372679,31.73612],[-95.366428,31.726759],[-95.335378,31.734873],[-95.3327,31.728041],[-95.342471,31.717951],[-95.334022,31.712069],[-95.327862,31.71704],[-95.325714,31.703739],[-95.311361,31.706218],[-95.311732,31.696929],[-95.28325,31.676409],[-95.283743,31.663222],[-95.275767,31.656949],[-95.286154,31.64775],[-95.281664,31.636416],[-95.287866,31.63292],[-95.265021,31.62442],[-95.259694,31.60781],[-95.273203,31.592886],[-95.651764,31.541791],[-95.647171,31.527014],[-95.739279,31.504056],[-95.737034,31.518534],[-95.758748,31.533644],[-95.751072,31.551964],[-95.715497,31.554358],[-95.718233,31.573215],[-95.729486,31.583523],[-95.711185,31.603903],[-95.718468,31.632402],[-95.735681,31.653822],[-95.754105,31.648583],[-95.748669,31.617709],[-95.76108,31.599874],[-95.77198,31.598621],[-95.796653,31.631059],[-95.789519,31.64752],[-95.794081,31.66031],[-95.779743,31.683938],[-95.787553,31.692596],[-95.795202,31.675185],[-95.805732,31.671075],[-95.833718,31.695143],[-95.852779,31.697805],[-95.861985,31.687349],[-95.880931,31.701264],[-95.87485,31.702949],[-95.87521,31.718838],[-95.866561,31.718781],[-95.870039,31.739098],[-95.881025,31.735143],[-95.875617,31.743415],[-95.86679,31.741983],[-95.874718,31.754673],[-95.893927,31.758733],[-95.90081,31.752415],[-95.897333,31.766763],[-95.924607,31.765935],[-95.931026,31.774445],[-95.934656,31.769628],[-95.952566,31.775821],[-95.962814,31.789373],[-95.980568,31.784561],[-95.973041,31.819861],[-95.978493,31.834259],[-95.994556,31.843574],[-95.969759,31.876739],[-95.99091,31.876239],[-95.994127,31.866258],[-96.006926,31.881189],[-96.024683,31.873524],[-96.019669,31.903587],[-96.012869,31.911422],[-96.001341,31.90717],[-96.006269,31.924748],[-96.020774,31.937954],[-96.014512,31.9461],[-96.02193,31.957299],[-96.040837,31.952134],[-96.041451,31.944927],[-96.04644,31.951898],[-96.054688,31.948225],[-96.061883,31.959552],[-96.042908,31.962971],[-96.06486,31.980947]]]},"id":"48001"},{"type":"Feature","properties":{"GEO_ID":"0500000US48009","STATE":"48","COUNTY":"009","NAME":"Archer","LSAD":"County","name":"Archer"},"geometry":{"type":"Polygon","coordinates":[[[-98.953929,33.404541],[-98.953202,33.834025],[-98.423577,33.836047],[-98.420666,33.396195],[-98.953938,33.397534],[-98.953929,33.404541]]]},"id":"48009"},{"type":"Feature","properties":{"GEO_ID":"0500000US48027","STATE":"48","COUNTY":"027","NAME":"Bell","LSAD":"County","name":"Bell"},"geometry":{"type":"Polygon","coordinates":[[[-97.814928,31.116687],[-97.418606,31.320202],[-97.343426,31.244215],[-97.277782,31.279513],[-97.070057,30.986031],[-97.258959,30.889579],[-97.315485,30.752363],[-97.624051,30.870004],[-97.8281,30.904414],[-97.911684,31.034919],[-97.913847,31.065882],[-97.814928,31.116687]]]},"id":"48027"},{"type":"Feature","properties":{"GEO_ID":"0500000US48049","STATE":"48","COUNTY":"049","NAME":"Brown","LSAD":"County","name":"Brown"},"geometry":{"type":"Polygon","coordinates":[[[-99.198652,31.970432],[-99.195871,32.079235],[-98.924401,32.078018],[-98.668441,31.700514],[-98.760057,31.687896],[-98.779951,31.610735],[-99.006103,31.480274],[-99.010644,31.471246],[-99.019011,31.469599],[-99.041343,31.490559],[-99.062995,31.462722],[-99.072618,31.467078],[-99.086367,31.455789],[-99.089991,31.461221],[-99.096294,31.448206],[-99.11615,31.46824],[-99.124645,31.456421],[-99.135248,31.465736],[-99.159463,31.468198],[-99.1841,31.453733],[-99.188797,31.470539],[-99.202768,31.467234],[-99.198652,31.970432]]]},"id":"48049"},{"type":"Feature","properties":{"GEO_ID":"0500000US48059","STATE":"48","COUNTY":"059","NAME":"Callahan","LSAD":"County","name":"Callahan"},"geometry":{"type":"Polygon","coordinates":[[[-99.117546,32.25044],[-99.118665,32.079585],[-99.631413,32.081274],[-99.629579,32.514657],[-99.114293,32.514811],[-99.117546,32.25044]]]},"id":"48059"},{"type":"Feature","properties":{"GEO_ID":"0500000US48063","STATE":"48","COUNTY":"063","NAME":"Camp","LSAD":"County","name":"Camp"},"geometry":{"type":"Polygon","coordinates":[[[-95.045013,32.902659],[-95.15211,32.902641],[-95.152206,33.01345],[-95.137213,33.030938],[-95.103043,33.032956],[-95.078394,33.052076],[-95.057705,33.055208],[-95.040269,33.072294],[-94.979754,33.077419],[-94.927042,33.070656],[-94.916921,33.045349],[-94.905507,33.044334],[-94.888112,33.023145],[-94.859343,33.013574],[-94.85813,33.001976],[-94.786497,32.959414],[-94.770868,32.927373],[-94.726833,32.913234],[-94.719926,32.90455],[-95.045013,32.902659]]]},"id":"48063"},{"type":"Feature","properties":{"GEO_ID":"0500000US48073","STATE":"48","COUNTY":"073","NAME":"Cherokee","LSAD":"County","name":"Cherokee"},"geometry":{"type":"Polygon","coordinates":[[[-95.462242,32.128975],[-95.459908,32.135559],[-94.985272,32.137989],[-94.985037,31.846193],[-94.937532,31.845555],[-94.934558,31.834583],[-94.948322,31.826326],[-94.942258,31.817826],[-94.953901,31.797],[-94.97816,31.793399],[-94.97489,31.781975],[-94.95859,31.778847],[-94.951359,31.769139],[-94.938627,31.772227],[-94.926078,31.760342],[-94.943804,31.752378],[-94.967295,31.754128],[-94.972757,31.737631],[-94.954379,31.723181],[-94.962871,31.715641],[-94.965223,31.693885],[-94.950723,31.679866],[-94.957099,31.670472],[-94.948353,31.657174],[-94.954224,31.639712],[-94.941768,31.638449],[-94.941415,31.627032],[-94.92612,31.609793],[-94.928364,31.59837],[-94.919227,31.587234],[-94.924219,31.579487],[-94.912697,31.569026],[-94.891704,31.577897],[-94.889591,31.566254],[-94.900615,31.552597],[-94.894002,31.541226],[-94.884366,31.540894],[-94.883748,31.529408],[-94.865857,31.526916],[-95.003345,31.42571],[-95.012077,31.435596],[-95.007331,31.444587],[-95.045224,31.445086],[-95.064701,31.471316],[-95.072326,31.463537],[-95.100735,31.468338],[-95.097772,31.47643],[-95.111129,31.483848],[-95.094423,31.49873],[-95.099966,31.518869],[-95.126365,31.538302],[-95.143445,31.539641],[-95.147309,31.553754],[-95.139603,31.562821],[-95.168509,31.583671],[-95.208518,31.570185],[-95.260257,31.577104],[-95.275306,31.594706],[-95.262013,31.602908],[-95.261939,31.619577],[-95.287866,31.63292],[-95.281664,31.636416],[-95.286154,31.64775],[-95.275767,31.656949],[-95.283743,31.663222],[-95.28325,31.676409],[-95.311732,31.696929],[-95.311361,31.706218],[-95.325714,31.703739],[-95.327862,31.71704],[-95.334022,31.712069],[-95.342471,31.717951],[-95.3327,31.728041],[-95.335378,31.734873],[-95.366428,31.726759],[-95.372679,31.73612],[-95.363067,31.736981],[-95.358239,31.749253],[-95.402125,31.76159],[-95.394036,31.784608],[-95.404252,31.803324],[-95.400786,31.818609],[-95.412515,31.826258],[-95.410166,31.834147],[-95.446884,31.843194],[-95.445221,31.857981],[-95.434837,31.866637],[-95.438882,31.876219],[-95.430978,31.880003],[-95.437522,31.901686],[-95.429211,31.901202],[-95.431873,31.913751],[-95.420223,31.926449],[-95.44585,31.946096],[-95.453497,31.960758],[-95.44362,31.966925],[-95.452902,31.976789],[-95.446146,31.999423],[-95.429784,32.006247],[-95.424106,32.018893],[-95.438673,32.033348],[-95.422193,32.042301],[-95.438496,32.066019],[-95.423776,32.082329],[-95.457335,32.112589],[-95.462242,32.128975]]]},"id":"48073"},{"type":"Feature","properties":{"GEO_ID":"0500000US48077","STATE":"48","COUNTY":"077","NAME":"Clay","LSAD":"County","name":"Clay"},"geometry":{"type":"Polygon","coordinates":[[[-98.423599,34.036211],[-98.423533,34.082843],[-98.411052,34.088592],[-98.411374,34.100324],[-98.399777,34.099973],[-98.398441,34.128456],[-98.380093,34.130831],[-98.384381,34.146317],[-98.366778,34.156649],[-98.325445,34.151025],[-98.293901,34.13302],[-98.232474,34.134641],[-98.216463,34.121821],[-98.170827,34.114171],[-98.130816,34.150532],[-98.11266,34.154591],[-98.101386,34.145754],[-98.102344,34.131918],[-98.089755,34.128211],[-98.099328,34.104295],[-98.119417,34.084474],[-98.120208,34.072127],[-98.082463,34.039428],[-98.106179,34.034887],[-98.084025,34.014369],[-98.088203,34.005481],[-98.027672,33.993357],[-97.974173,34.006716],[-97.958325,33.990846],[-97.946005,33.990297],[-97.960351,33.951928],[-97.974173,33.942832],[-97.953395,33.936445],[-97.957155,33.914454],[-97.968747,33.906023],[-97.978804,33.912548],[-97.98454,33.900703],[-97.977859,33.889929],[-97.978919,33.467129],[-98.421419,33.466797],[-98.423599,34.036211]]]},"id":"48077"},{"type":"Feature","properties":{"GEO_ID":"0500000US48093","STATE":"48","COUNTY":"093","NAME":"Comanche","LSAD":"County","name":"Comanche"},"geometry":{"type":"Polygon","coordinates":[[[-98.417281,32.069529],[-98.327499,31.941261],[-98.251211,31.980127],[-98.156568,31.841713],[-98.463736,31.683989],[-98.492802,31.723608],[-98.668441,31.700514],[-98.924401,32.078018],[-98.551158,32.261436],[-98.417281,32.069529]]]},"id":"48093"},{"type":"Feature","properties":{"GEO_ID":"0500000US48099","STATE":"48","COUNTY":"099","NAME":"Coryell","LSAD":"County","name":"Coryell"},"geometry":{"type":"Polygon","coordinates":[[[-97.879603,31.083548],[-97.9071,31.069374],[-98.180006,31.463717],[-97.689834,31.711019],[-97.418606,31.320202],[-97.879603,31.083548]]]},"id":"48099"},{"type":"Feature","properties":{"GEO_ID":"0500000US48119","STATE":"48","COUNTY":"119","NAME":"Delta","LSAD":"County","name":"Delta"},"geometry":{"type":"Polygon","coordinates":[[[-95.710363,33.301611],[-95.729884,33.305588],[-95.758137,33.296866],[-95.756465,33.288216],[-95.774313,33.276877],[-95.786682,33.253997],[-95.844222,33.233852],[-95.861778,33.21933],[-95.857738,33.461722],[-95.82656,33.459094],[-95.7793,33.491802],[-95.761384,33.495452],[-95.732993,33.484574],[-95.707786,33.48776],[-95.697238,33.476765],[-95.685129,33.478668],[-95.681785,33.470267],[-95.643511,33.486774],[-95.603675,33.484721],[-95.592952,33.480126],[-95.590764,33.469001],[-95.562235,33.47587],[-95.526792,33.44587],[-95.504798,33.441927],[-95.493791,33.455502],[-95.481702,33.45254],[-95.464246,33.433667],[-95.444673,33.43305],[-95.415228,33.411171],[-95.399752,33.409778],[-95.396992,33.398978],[-95.306955,33.379828],[-95.314165,33.367232],[-95.335857,33.361424],[-95.369667,33.369999],[-95.418329,33.371032],[-95.441294,33.362707],[-95.456211,33.368447],[-95.465034,33.356802],[-95.514307,33.34624],[-95.539511,33.360546],[-95.557108,33.350921],[-95.584353,33.359405],[-95.612886,33.348295],[-95.644273,33.312254],[-95.683073,33.299827],[-95.698067,33.308391],[-95.710363,33.301611]]]},"id":"48119"},{"type":"Feature","properties":{"GEO_ID":"0500000US48133","STATE":"48","COUNTY":"133","NAME":"Eastland","LSAD":"County","name":"Eastland"},"geometry":{"type":"Polygon","coordinates":[[[-98.835607,32.120244],[-98.924401,32.078018],[-99.118665,32.079585],[-99.114293,32.514811],[-98.475177,32.513039],[-98.474685,32.299084],[-98.835607,32.120244]]]},"id":"48133"},{"type":"Feature","properties":{"GEO_ID":"0500000US48145","STATE":"48","COUNTY":"145","NAME":"Falls","LSAD":"County","name":"Falls"},"geometry":{"type":"Polygon","coordinates":[[[-96.829603,31.110411],[-97.070057,30.986031],[-97.278113,31.279799],[-96.801123,31.522269],[-96.596862,31.2209],[-96.830497,31.10522],[-96.829603,31.110411]]]},"id":"48145"},{"type":"Feature","properties":{"GEO_ID":"0500000US48161","STATE":"48","COUNTY":"161","NAME":"Freestone","LSAD":"County","name":"Freestone"},"geometry":{"type":"Polygon","coordinates":[[[-96.058572,31.49507],[-96.236629,31.413392],[-96.496713,31.796191],[-96.05478,32.012526],[-96.049045,31.997245],[-96.064804,31.980664],[-96.042914,31.962793],[-96.055892,31.96365],[-96.061908,31.955437],[-96.041451,31.944927],[-96.040837,31.952134],[-96.02193,31.957299],[-96.014512,31.9461],[-96.020889,31.938224],[-96.010521,31.93405],[-96.001401,31.908169],[-96.013842,31.910881],[-96.027622,31.877875],[-96.01918,31.871762],[-96.006926,31.881189],[-95.994127,31.866258],[-95.99091,31.876239],[-95.968119,31.87246],[-95.976912,31.870488],[-95.99446,31.844103],[-95.978493,31.834259],[-95.973041,31.819861],[-95.983574,31.788002],[-95.962814,31.789373],[-95.952566,31.775821],[-95.934656,31.769628],[-95.931026,31.774445],[-95.924607,31.765935],[-95.897333,31.766763],[-95.900079,31.752132],[-95.893927,31.758733],[-95.874718,31.754673],[-95.86679,31.741983],[-95.875617,31.743415],[-95.881025,31.735143],[-95.870039,31.739098],[-95.866561,31.718781],[-95.87521,31.718838],[-95.87485,31.702949],[-95.880931,31.701264],[-95.861985,31.687349],[-95.852779,31.697805],[-95.833718,31.695143],[-95.805732,31.671075],[-95.795202,31.675185],[-95.788749,31.692317],[-95.779678,31.684579],[-95.794081,31.66031],[-95.789519,31.64752],[-95.796653,31.631059],[-95.7873,31.618385],[-96.058572,31.49507]]]},"id":"48161"},{"type":"Feature","properties":{"GEO_ID":"0500000US48183","STATE":"48","COUNTY":"183","NAME":"Gregg","LSAD":"County","name":"Gregg"},"geometry":{"type":"Polygon","coordinates":[[[-94.701852,32.58458],[-94.701986,32.421782],[-94.676589,32.42438],[-94.668961,32.408979],[-94.642426,32.398315],[-94.579219,32.394916],[-94.591438,32.365588],[-94.605029,32.359948],[-94.63975,32.370776],[-94.9864,32.370837],[-94.986935,32.537246],[-94.820223,32.590648],[-94.746136,32.66754],[-94.727458,32.65515],[-94.702641,32.656383],[-94.701852,32.58458]]]},"id":"48183"},{"type":"Feature","properties":{"GEO_ID":"0500000US48193","STATE":"48","COUNTY":"193","NAME":"Hamilton","LSAD":"County","name":"Hamilton"},"geometry":{"type":"Polygon","coordinates":[[[-98.208386,31.917511],[-98.005462,32.017897],[-97.766431,31.672461],[-98.27107,31.416398],[-98.463736,31.683989],[-98.156568,31.841713],[-98.208386,31.917511]]]},"id":"48193"},{"type":"Feature","properties":{"GEO_ID":"0500000US48225","STATE":"48","COUNTY":"225","NAME":"Houston","LSAD":"County","name":"Houston"},"geometry":{"type":"Polygon","coordinates":[[[-95.248168,31.186591],[-95.617872,30.930418],[-95.638683,30.926736],[-95.681305,30.987499],[-95.658418,31.01631],[-95.668847,31.026861],[-95.641193,31.042337],[-95.631397,31.036836],[-95.629983,31.05175],[-95.647546,31.055382],[-95.654913,31.067311],[-95.648429,31.06988],[-95.663546,31.083884],[-95.675514,31.075965],[-95.692388,31.08196],[-95.698475,31.076766],[-95.704139,31.082563],[-95.723383,31.079834],[-95.729045,31.087999],[-95.736356,31.083772],[-95.741554,31.090772],[-95.760626,31.088928],[-95.777039,31.12071],[-95.77425,31.138323],[-95.728026,31.161955],[-95.744331,31.178782],[-95.747943,31.20831],[-95.725041,31.230098],[-95.725226,31.271084],[-95.704141,31.28042],[-95.707395,31.28677],[-95.695085,31.297029],[-95.681413,31.288509],[-95.671403,31.29556],[-95.679106,31.302108],[-95.66871,31.307657],[-95.67168,31.317204],[-95.656125,31.322183],[-95.657514,31.34348],[-95.677371,31.346791],[-95.672623,31.356104],[-95.661286,31.357585],[-95.66487,31.365549],[-95.691444,31.374676],[-95.69283,31.391494],[-95.700806,31.393856],[-95.698403,31.407086],[-95.711338,31.421536],[-95.712117,31.455783],[-95.721449,31.46256],[-95.746837,31.45817],[-95.736532,31.473736],[-95.721905,31.471923],[-95.729854,31.48963],[-95.744631,31.48999],[-95.743198,31.500618],[-95.647171,31.527014],[-95.651764,31.541791],[-95.493171,31.564905],[-95.273203,31.592886],[-95.255217,31.574814],[-95.225975,31.577417],[-95.208518,31.570185],[-95.168509,31.583671],[-95.139603,31.562821],[-95.147309,31.553754],[-95.143445,31.539641],[-95.126365,31.538302],[-95.099966,31.518869],[-95.094423,31.49873],[-95.111129,31.483848],[-95.097772,31.47643],[-95.100735,31.468338],[-95.072326,31.463537],[-95.06513,31.471458],[-95.045224,31.445086],[-95.007331,31.444587],[-95.012098,31.435788],[-95.005397,31.420891],[-94.976871,31.40928],[-94.977984,31.399571],[-94.95811,31.38693],[-95.248168,31.186591]]]},"id":"48225"},{"type":"Feature","properties":{"GEO_ID":"0500000US48277","STATE":"48","COUNTY":"277","NAME":"Lamar","LSAD":"County","name":"Lamar"},"geometry":{"type":"Polygon","coordinates":[[[-95.855832,33.631758],[-95.85505,33.827939],[-95.846536,33.839855],[-95.822047,33.838554],[-95.815571,33.859853],[-95.797614,33.86059],[-95.770239,33.845202],[-95.758249,33.849374],[-95.751342,33.860287],[-95.762467,33.881144],[-95.752153,33.894577],[-95.733183,33.896447],[-95.700635,33.885845],[-95.665478,33.909004],[-95.632774,33.904815],[-95.594085,33.943057],[-95.55421,33.926958],[-95.544141,33.880603],[-95.509526,33.897586],[-95.504999,33.875922],[-95.46144,33.887106],[-95.463336,33.872396],[-95.440375,33.866286],[-95.363209,33.866812],[-95.335696,33.874252],[-95.329936,33.886334],[-95.314428,33.881632],[-95.308133,33.378118],[-95.372755,33.390849],[-95.388141,33.402088],[-95.396992,33.398978],[-95.399752,33.409778],[-95.415228,33.411171],[-95.444673,33.43305],[-95.464246,33.433667],[-95.481702,33.45254],[-95.493791,33.455502],[-95.504798,33.441927],[-95.526792,33.44587],[-95.562235,33.47587],[-95.590764,33.469001],[-95.592952,33.480126],[-95.603675,33.484721],[-95.643511,33.486774],[-95.681785,33.470267],[-95.685129,33.478668],[-95.697238,33.476765],[-95.707786,33.48776],[-95.732993,33.484574],[-95.761384,33.495452],[-95.7793,33.491802],[-95.825865,33.459347],[-95.853587,33.459166],[-95.855832,33.631758]]]},"id":"48277"},{"type":"Feature","properties":{"GEO_ID":"0500000US48289","STATE":"48","COUNTY":"289","NAME":"Leon","LSAD":"County","name":"Leon"},"geometry":{"type":"Polygon","coordinates":[[[-95.988775,31.086167],[-96.017471,31.070015],[-96.04789,31.068728],[-96.170918,30.9944],[-96.24102,30.973737],[-96.235242,30.995609],[-96.260795,31.007802],[-96.241568,31.057092],[-96.277454,31.087658],[-96.276938,31.116188],[-96.299187,31.148016],[-96.297136,31.181416],[-96.311746,31.198121],[-96.310432,31.217201],[-96.319549,31.222378],[-96.314047,31.228914],[-96.33109,31.25223],[-96.313833,31.270994],[-96.327988,31.28647],[-96.328592,31.298638],[-96.317301,31.301623],[-96.326017,31.311968],[-96.314685,31.342443],[-96.322853,31.374067],[-95.7873,31.618385],[-95.777586,31.602257],[-95.76139,31.59963],[-95.748669,31.617709],[-95.756768,31.64561],[-95.735681,31.653822],[-95.710035,31.614694],[-95.71587,31.594067],[-95.729486,31.583523],[-95.718233,31.573215],[-95.715705,31.553982],[-95.751072,31.551964],[-95.758748,31.533644],[-95.737034,31.518534],[-95.733877,31.508376],[-95.745017,31.490975],[-95.738404,31.485003],[-95.729854,31.48963],[-95.721842,31.472754],[-95.738291,31.472749],[-95.746837,31.45817],[-95.721449,31.46256],[-95.712117,31.455783],[-95.711338,31.421536],[-95.698403,31.407086],[-95.700806,31.393856],[-95.69283,31.391494],[-95.691444,31.374676],[-95.664402,31.364745],[-95.661286,31.357585],[-95.672623,31.356104],[-95.677371,31.346791],[-95.657514,31.34348],[-95.657202,31.317999],[-95.67168,31.317204],[-95.66871,31.307657],[-95.679106,31.302108],[-95.671033,31.296236],[-95.681106,31.288649],[-95.695085,31.297029],[-95.707395,31.28677],[-95.704141,31.28042],[-95.725226,31.271084],[-95.725041,31.230098],[-95.747943,31.20831],[-95.744331,31.178782],[-95.728026,31.161955],[-95.775578,31.136095],[-95.777039,31.12071],[-95.76441,31.094211],[-95.973102,31.09219],[-95.988775,31.086167]]]},"id":"48289"},{"type":"Feature","properties":{"GEO_ID":"0500000US48293","STATE":"48","COUNTY":"293","NAME":"Limestone","LSAD":"County","name":"Limestone"},"geometry":{"type":"Polygon","coordinates":[[[-96.381483,31.627543],[-96.236629,31.413392],[-96.322853,31.374067],[-96.319165,31.357129],[-96.596862,31.2209],[-96.932215,31.708887],[-96.719114,31.814887],[-96.496752,31.796248],[-96.381483,31.627543]]]},"id":"48293"},{"type":"Feature","properties":{"GEO_ID":"0500000US48309","STATE":"48","COUNTY":"309","NAME":"McLennan","LSAD":"County","name":"McLennan"},"geometry":{"type":"Polygon","coordinates":[[[-97.017623,31.410927],[-97.343426,31.244215],[-97.418606,31.320202],[-97.60523,31.587762],[-97.037266,31.863079],[-96.801123,31.522269],[-97.017623,31.410927]]]},"id":"48309"},{"type":"Feature","properties":{"GEO_ID":"0500000US48333","STATE":"48","COUNTY":"333","NAME":"Mills","LSAD":"County","name":"Mills"},"geometry":{"type":"Polygon","coordinates":[[[-98.995091,31.467387],[-98.986941,31.478929],[-98.991625,31.48473],[-98.779951,31.610735],[-98.760057,31.687896],[-98.492802,31.723608],[-98.266794,31.410521],[-98.562732,31.230443],[-98.57981,31.265386],[-98.592793,31.266067],[-98.595651,31.253059],[-98.628349,31.274109],[-98.622135,31.285088],[-98.598189,31.286998],[-98.587268,31.325463],[-98.606849,31.312149],[-98.630771,31.310163],[-98.618108,31.322371],[-98.629946,31.326021],[-98.647633,31.31486],[-98.639639,31.332381],[-98.646969,31.340685],[-98.636375,31.352912],[-98.654614,31.358493],[-98.653476,31.370044],[-98.696644,31.339372],[-98.712352,31.347157],[-98.703054,31.360983],[-98.704348,31.380186],[-98.692811,31.389065],[-98.696634,31.407287],[-98.718416,31.404047],[-98.728399,31.411224],[-98.724493,31.427432],[-98.742512,31.428427],[-98.736732,31.4173],[-98.742271,31.405273],[-98.755672,31.400444],[-98.752984,31.385204],[-98.762589,31.375282],[-98.777894,31.377127],[-98.776638,31.413865],[-98.813317,31.404711],[-98.816021,31.417075],[-98.84677,31.410557],[-98.871017,31.443701],[-98.895557,31.433614],[-98.925192,31.433988],[-98.933188,31.436928],[-98.940985,31.458555],[-98.95378,31.454335],[-98.966046,31.435143],[-98.965018,31.453298],[-98.995091,31.467387]]]},"id":"48333"},{"type":"Feature","properties":{"GEO_ID":"0500000US48387","STATE":"48","COUNTY":"387","NAME":"Red River","LSAD":"County","name":"Red River"},"geometry":{"type":"Polygon","coordinates":[[[-95.310565,33.608422],[-95.310497,33.877204],[-95.27913,33.876567],[-95.285585,33.903445],[-95.27596,33.911279],[-95.266385,33.908468],[-95.262956,33.888321],[-95.25415,33.893604],[-95.250171,33.938497],[-95.226041,33.962237],[-95.156961,33.936645],[-95.1247,33.934675],[-95.121727,33.925762],[-95.131644,33.913926],[-95.120893,33.904539],[-95.08006,33.920989],[-95.079742,33.908595],[-95.100378,33.895595],[-95.089607,33.880857],[-95.082408,33.879882],[-95.078696,33.90504],[-95.067253,33.917351],[-95.063669,33.911108],[-95.075954,33.902066],[-95.071801,33.895561],[-95.072413,33.902699],[-95.060105,33.901873],[-95.048195,33.86347],[-95.015745,33.857733],[-95.002187,33.863713],[-94.988487,33.851],[-94.970205,33.861817],[-94.964401,33.837021],[-94.943888,33.830226],[-94.95352,33.816007],[-94.942217,33.80578],[-94.923289,33.808742],[-94.926616,33.827557],[-94.91801,33.826783],[-94.910882,33.815915],[-94.921526,33.790472],[-94.876372,33.75733],[-94.874229,33.770063],[-94.867707,33.768501],[-94.877125,33.753123],[-94.869913,33.746196],[-94.827948,33.740882],[-94.821989,33.732878],[-94.830875,33.759985],[-94.820707,33.768964],[-94.812155,33.750936],[-94.817023,33.740007],[-94.802833,33.732699],[-94.780068,33.744469],[-94.768656,33.760962],[-94.758125,33.756537],[-94.758665,33.748854],[-94.776815,33.746437],[-94.788637,33.735669],[-94.768695,33.726989],[-94.751825,33.734326],[-94.747668,33.725148],[-94.757738,33.717817],[-94.751366,33.71354],[-94.742092,33.726692],[-94.732939,33.72453],[-94.753801,33.708663],[-94.746096,33.703016],[-94.746925,33.328938],[-94.754251,33.31798],[-94.781447,33.318722],[-94.776914,33.33276],[-94.78941,33.337893],[-94.781867,33.344261],[-94.79743,33.348384],[-94.791125,33.355963],[-94.801032,33.365513],[-94.814951,33.362858],[-94.81271,33.375577],[-94.839245,33.385179],[-94.857586,33.3767],[-94.889304,33.39848],[-94.908286,33.383716],[-94.952483,33.390405],[-94.955243,33.396616],[-94.979317,33.387099],[-95.004729,33.395363],[-95.017127,33.390949],[-95.020025,33.380943],[-95.041194,33.384878],[-95.039692,33.380097],[-95.059097,33.38613],[-95.058302,33.392148],[-95.074782,33.385917],[-95.093348,33.397571],[-95.119604,33.385859],[-95.145464,33.388204],[-95.143201,33.383097],[-95.160535,33.379873],[-95.166183,33.385484],[-95.191683,33.373769],[-95.201067,33.38095],[-95.222683,33.378335],[-95.241513,33.367776],[-95.260962,33.366934],[-95.271049,33.376734],[-95.290144,33.375591],[-95.299116,33.382738],[-95.30664,33.378027],[-95.310565,33.608422]]]},"id":"48387"},{"type":"Feature","properties":{"GEO_ID":"0500000US48401","STATE":"48","COUNTY":"401","NAME":"Rusk","LSAD":"County","name":"Rusk"},"geometry":{"type":"Polygon","coordinates":[[[-94.985957,32.364017],[-94.985411,32.37082],[-94.63975,32.370776],[-94.600776,32.360044],[-94.591392,32.365654],[-94.579219,32.394916],[-94.555726,32.4075],[-94.541806,32.399296],[-94.525994,32.402323],[-94.527382,32.393566],[-94.515379,32.387145],[-94.501694,32.397915],[-94.491818,32.394137],[-94.493361,32.356492],[-94.526504,32.278106],[-94.556223,32.250158],[-94.580256,32.202545],[-94.580747,32.159269],[-94.60156,32.079971],[-94.599978,31.973193],[-94.511431,31.973984],[-94.511315,31.924129],[-94.480619,31.902273],[-94.452513,31.844113],[-94.985037,31.846193],[-94.985957,32.364017]]]},"id":"48401"},{"type":"Feature","properties":{"GEO_ID":"0500000US48417","STATE":"48","COUNTY":"417","NAME":"Shackelford","LSAD":"County","name":"Shackelford"},"geometry":{"type":"Polygon","coordinates":[[[-99.341002,32.515002],[-99.612026,32.514654],[-99.612001,32.956962],[-99.096016,32.957037],[-99.09605,32.514768],[-99.341002,32.515002]]]},"id":"48417"},{"type":"Feature","properties":{"GEO_ID":"0500000US48423","STATE":"48","COUNTY":"423","NAME":"Smith","LSAD":"County","name":"Smith"},"geometry":{"type":"Polygon","coordinates":[[[-95.171983,32.136939],[-95.459908,32.135559],[-95.477914,32.146209],[-95.47097,32.178655],[-95.461556,32.182898],[-95.46827,32.190481],[-95.462456,32.201543],[-95.478936,32.212223],[-95.488733,32.232486],[-95.467584,32.24663],[-95.469949,32.262124],[-95.446969,32.295807],[-95.458738,32.328429],[-95.447563,32.347298],[-95.449099,32.35946],[-95.470996,32.369214],[-95.493687,32.389463],[-95.506931,32.414935],[-95.524791,32.421168],[-95.552778,32.453601],[-95.5943,32.479858],[-95.594541,32.687026],[-95.54223,32.654953],[-95.542096,32.646894],[-95.524276,32.643665],[-95.511683,32.632807],[-95.514808,32.622919],[-95.474683,32.606098],[-95.442764,32.607718],[-95.446747,32.613733],[-95.375217,32.597409],[-95.374691,32.603037],[-95.34595,32.609291],[-95.297729,32.591565],[-95.278141,32.571576],[-95.250314,32.577727],[-95.238235,32.560611],[-95.204964,32.572369],[-95.206333,32.558106],[-95.183548,32.540968],[-95.175817,32.555424],[-95.164973,32.544583],[-95.150141,32.572294],[-95.140095,32.550162],[-95.121874,32.54975],[-95.119292,32.542554],[-95.093259,32.557682],[-95.079116,32.556119],[-95.083871,32.542541],[-95.075322,32.537073],[-95.04452,32.542202],[-95.041341,32.532176],[-95.024817,32.537],[-95.020974,32.546726],[-95.015339,32.532809],[-95.022473,32.52185],[-95.011602,32.516477],[-94.986935,32.537246],[-94.985272,32.137989],[-95.171983,32.136939]]]},"id":"48423"},{"type":"Feature","properties":{"GEO_ID":"0500000US48429","STATE":"48","COUNTY":"429","NAME":"Stephens","LSAD":"County","name":"Stephens"},"geometry":{"type":"Polygon","coordinates":[[[-99.096041,32.932468],[-99.096016,32.957037],[-98.575616,32.954349],[-98.576256,32.515163],[-99.09605,32.514768],[-99.096041,32.932468]]]},"id":"48429"},{"type":"Feature","properties":{"GEO_ID":"0500000US48447","STATE":"48","COUNTY":"447","NAME":"Throckmorton","LSAD":"County","name":"Throckmorton"},"geometry":{"type":"Polygon","coordinates":[[[-99.472444,33.399023],[-98.953938,33.397534],[-98.950875,32.956918],[-99.471258,32.957025],[-99.472444,33.399023]]]},"id":"48447"},{"type":"Feature","properties":{"GEO_ID":"0500000US48449","STATE":"48","COUNTY":"449","NAME":"Titus","LSAD":"County","name":"Titus"},"geometry":{"type":"Polygon","coordinates":[[[-95.125451,33.389454],[-95.093348,33.397571],[-95.076392,33.38617],[-95.058605,33.392217],[-95.046723,33.381977],[-95.020899,33.380829],[-95.017127,33.390949],[-95.004729,33.395363],[-94.979317,33.387099],[-94.955243,33.396616],[-94.952483,33.390405],[-94.908286,33.383716],[-94.889304,33.39848],[-94.857586,33.3767],[-94.839245,33.385179],[-94.812221,33.375115],[-94.819828,32.982886],[-94.85813,33.001976],[-94.859343,33.013574],[-94.888112,33.023145],[-94.901977,33.041789],[-94.917887,33.046194],[-94.923941,33.067538],[-94.93906,33.074503],[-95.040269,33.072294],[-95.09841,33.034978],[-95.12613,33.034581],[-95.125451,33.389454]]]},"id":"48449"},{"type":"Feature","properties":{"GEO_ID":"0500000US48459","STATE":"48","COUNTY":"459","NAME":"Upshur","LSAD":"County","name":"Upshur"},"geometry":{"type":"Polygon","coordinates":[[[-94.990013,32.534262],[-95.011602,32.516477],[-95.022473,32.52185],[-95.015339,32.532809],[-95.020974,32.546726],[-95.024817,32.537],[-95.041341,32.532176],[-95.04452,32.542202],[-95.075322,32.537073],[-95.083871,32.542541],[-95.079116,32.556119],[-95.093259,32.557682],[-95.119292,32.542554],[-95.121874,32.54975],[-95.140095,32.550162],[-95.145684,32.569571],[-95.15341,32.570115],[-95.152243,32.902481],[-94.719942,32.904502],[-94.706822,32.894928],[-94.709711,32.870485],[-94.698329,32.860162],[-94.698976,32.845062],[-94.672351,32.834756],[-94.702138,32.820515],[-94.70179,32.652209],[-94.703889,32.65813],[-94.727666,32.655206],[-94.746136,32.66754],[-94.820223,32.590648],[-94.990013,32.534262]]]},"id":"48459"},{"type":"Feature","properties":{"GEO_ID":"0500000US48485","STATE":"48","COUNTY":"485","NAME":"Wichita","LSAD":"County","name":"Wichita"},"geometry":{"type":"Polygon","coordinates":[[[-98.707448,33.834775],[-98.953202,33.834025],[-98.952395,34.212497],[-98.918333,34.181831],[-98.872922,34.166584],[-98.874872,34.155657],[-98.866738,34.149246],[-98.855585,34.161621],[-98.812954,34.158444],[-98.796203,34.142775],[-98.788405,34.146668],[-98.749291,34.124238],[-98.734287,34.135758],[-98.690072,34.133155],[-98.648073,34.164441],[-98.616733,34.156418],[-98.599789,34.160571],[-98.55088,34.132583],[-98.560977,34.123922],[-98.486999,34.06288],[-98.449034,34.073462],[-98.440092,34.084311],[-98.423533,34.082843],[-98.423003,33.836056],[-98.707448,33.834775]]]},"id":"48485"},{"type":"Feature","properties":{"GEO_ID":"0500000US48499","STATE":"48","COUNTY":"499","NAME":"Wood","LSAD":"County","name":"Wood"},"geometry":{"type":"Polygon","coordinates":[[[-95.152451,32.759591],[-95.15341,32.570115],[-95.165305,32.544359],[-95.17544,32.555477],[-95.181241,32.541801],[-95.189809,32.542122],[-95.206779,32.558992],[-95.204964,32.572369],[-95.238235,32.560611],[-95.250314,32.577727],[-95.278141,32.571576],[-95.297729,32.591565],[-95.34595,32.609291],[-95.374691,32.603037],[-95.375217,32.597409],[-95.446747,32.613733],[-95.442764,32.607718],[-95.4748,32.606141],[-95.514808,32.622919],[-95.511683,32.632807],[-95.524276,32.643665],[-95.542096,32.646894],[-95.54223,32.654953],[-95.564924,32.664771],[-95.567197,32.673468],[-95.592343,32.682525],[-95.604791,32.704743],[-95.634618,32.716923],[-95.665389,32.960434],[-95.172947,32.961829],[-95.152206,33.01345],[-95.152451,32.759591]]]},"id":"48499"},{"type":"Feature","properties":{"GEO_ID":"0500000US48503","STATE":"48","COUNTY":"503","NAME":"Young","LSAD":"County","name":"Young"},"geometry":{"type":"Polygon","coordinates":[[[-98.954097,33.36984],[-98.953938,33.397534],[-98.420666,33.396195],[-98.427211,32.9523],[-98.950875,32.956918],[-98.954097,33.36984]]]},"id":"48503"},{"type":"Feature","properties":{"GEO_ID":"0500000US48147","STATE":"48","COUNTY":"147","NAME":"Fannin","LSAD":"County","name":"Fannin"},"geometry":{"type":"Polygon","coordinates":[[[-95.85772,33.462718],[-95.858723,33.40953],[-96.384495,33.341119],[-96.379452,33.725764],[-96.362197,33.691818],[-96.342266,33.686843],[-96.32061,33.695413],[-96.311224,33.708003],[-96.306163,33.744032],[-96.293708,33.769409],[-96.263593,33.767467],[-96.229023,33.748021],[-96.186627,33.755021],[-96.16909,33.770417],[-96.155538,33.81404],[-96.169592,33.800944],[-96.179122,33.810224],[-96.150765,33.816987],[-96.14807,33.837799],[-96.122949,33.839964],[-96.09936,33.83047],[-96.100095,33.847971],[-96.048834,33.836468],[-96.034988,33.842646],[-96.026968,33.857474],[-96.020083,33.855046],[-96.020624,33.840627],[-95.997708,33.852183],[-95.994869,33.861824],[-96.002925,33.87359],[-95.984927,33.865805],[-95.984856,33.852492],[-95.94414,33.859998],[-95.932314,33.883767],[-95.9242,33.884585],[-95.846536,33.839855],[-95.855119,33.827358],[-95.85772,33.462718]]]},"id":"48147"}]}